NAVSTAR 77 (USA 289)    
1 43873U 18109A   23321.86873576  .00000082  00000+0  00000+0 0  9993
2 43873  55.2202 129.4197 0027351 189.8814 294.3881  2.00571087 36120
